STARLINK-3149
1 49423U 21104R   26061.16668981  .01243505  00000+0  11688-1 0  9994
2 49423  53.2162 256.8383 0000829  69.6578   0.2480 15.63743181  5792
